METHANESAT              
1 59101U 24043D   25172.33187552  .00001115  00000+0  10620-3 0  9999
2 59101  97.8007 298.3788 0011964 131.2452 228.9801 14.95383940 70679
